ONEWEB-0697             
1 61603U 24188K   25066.25002315 -.00978700  00000+0 -94985+0 0  9992
2 61603  87.3024 115.4713 0002980 123.7899 175.6372 13.82831563 21398
ONEWEB-0698             
1 61604U 24188L   25066.16668981 -.00990907  00000+0 -90173+0 0  9998
2 61604  87.3238 115.5261 0006481 104.4709 357.4338 13.86648355 21167
ONEWEB-0699             
1 61605U 24188M   25065.67863392 -.00000128  00000+0 -40382-3 0  9995
2 61605  87.8867 129.4495 0002389  93.8652 266.2748 13.10362926 22083
ONEWEB-0701             
1 61607U 24188P   25065.69688950  .00001103  00000+0  31224-2 0  9990
2 61607  87.8865 129.4521 0002088  77.8256 282.3105 13.10371625 22083
ONEWEB-0702             
1 61608U 24188Q   25066.16668981 -.00982887  00000+0 -85759+0 0  9994
2 61608  87.3103 115.5011 0007669 105.7093 211.2019 13.89070021 21215
